STARLINK-2022           
1 47643U 21012Z   24044.85729109 -.00000484  00000+0 -13585-4 0  9998
2 47643  53.0534 200.1940 0001314  95.5756 264.5383 15.06399716166492
